ORBITAL FACTORY 2 (OF-2)
1 45113U 19071C   20264.82475257  .00001228  00000-0  48629-4 0  9992
2 45113  51.6434 262.7337 0013377  42.6596 317.5422 15.33663631 35764
M2 PATHFINDER           
1 45727U 20037E   20264.62196924 -.00000414  00000-0 -36043-4 0  9991
2 45727  97.7036  82.5249 0012737 348.5823  11.5093 14.91224687 12200
